ONEWEB-0383             
1 49309U 21090AG  25252.99418286 -.00000018  00000+0 -81989-4 0  9999
2 49309  87.9096 345.4695 0001839  94.7987 265.3353 13.14503668190786
ONEWEB-0384             
1 49310U 21090AH  25252.76490952 -.00000049  00000+0 -15150-3 0  9996
2 49310  87.9299 330.3599 0002251  87.7977 272.3414 13.20789057192816
ONEWEB-0385             
1 49311U 21090AJ  25253.21646200  .00000087  00000+0  18104-3 0  9999
2 49311  87.9275 330.2579 0002018  95.8946 264.2418 13.20773566192840
ONEWEB-0386             
1 49312U 21090AK  25253.46109658  .00000134  00000+0  29796-3 0  9990
2 49312  87.9281 330.1846 0002043  91.5070 268.6298 13.20771727192899
ONEWEB-0387             
1 49313U 21090AL  25253.44530203  .00000092  00000+0  19367-3 0  9999
2 49313  87.9275 330.2417 0002224 100.2436 259.8949 13.20770881192898
ONEWEB-0388             
1 49314U 21090AM  25253.26479477  .00000055  00000+0  10423-3 0  9998
2 49314  87.9282   0.6413 0001892  95.8734 264.2614 13.19726254189495
ONEWEB-0389             
1 50469U 21132A   25253.44987572 -.00000043  00000+0 -14431-3 0  9990
2 50469  87.9044  61.5157 0002095  91.0538 269.0834 13.17649499181246
ONEWEB-0390             
1 50470U 21132B   25253.45155799  .00000010  00000+0 -62092-5 0  9992
2 50470  87.9045  61.5215 0001710 100.9429 259.1895 13.17648504181249
ONEWEB-0391             
1 50471U 21132C   25253.45323532  .00000016  00000+0  75555-5 0  9998
2 50471  87.9038  61.5341 0002534  99.6303 260.5115 13.17650344181248
ONEWEB-0392             
1 50472U 21132D   25252.87612226 -.00000002  00000+0 -38938-4 0  9995
2 50472  87.9043  61.5943 0002136  93.5537 266.5839 13.17650608181201
ONEWEB-0393             
1 50473U 21132E   25253.45672833  .00000011  00000+0 -37216-5 0  9999
2 50473  87.9047  61.4983 0001879  91.6767 268.4580 13.17646815181272
ONEWEB-0394             
1 50474U 21132F   25253.34117272  .00000121  00000+0  27443-3 0  9999
2 50474  87.9187  31.0077 0001900  94.4857 265.6493 13.18687716184711
ONEWEB-0395             
1 50475U 21132G   25253.23417705 -.00000564  00000+0 -16277-2 0  9997
2 50475  87.8774  76.8571 0001895  96.8897 263.2447 13.11417953179020
ONEWEB-0396             
1 50476U 21132H   25253.33457279  .00000138  00000+0  31623-3 0  9997
2 50476  87.9184  31.0209 0001841  95.5128 264.6214 13.18687864184752
ONEWEB-0397             
1 50477U 21132J   25253.34942432  .00000117  00000+0  26422-3 0  9997
2 50477  87.9183  31.0190 0001787  90.2431 269.8906 13.18685592184738
ONEWEB-0398             
1 50478U 21132K   25253.20198364  .00000462  00000+0  12677-2 0  9999
2 50478  87.8781  76.8286 0001580 103.2040 256.9264 13.11415984178913
ONEWEB-0399             
1 50479U 21132L   25253.26471260 -.00000210  00000+0 -62874-3 0  9993
2 50479  87.8773  76.8377 0002215  83.6128 276.5252 13.11419308178919
