[{"OBJECT_NAME":"ONEWEB-0383","OBJECT_ID":"2021-090AG","EPOCH":"2025-09-09T23:51:37.399104","MEAN_MOTION":13.14503668,"ECCENTRICITY":0.00018392,"INCLINATION":87.9096,"RA_OF_ASC_NODE":345.4695,"ARG_OF_PERICENTER":94.7987,"MEAN_ANOMALY":265.3353,"EPHEMERIS_TYPE":0,"CLASSIFICATION_TYPE":"U","NORAD_CAT_ID":49309,"ELEMENT_SET_NO":999,"REV_AT_EPOCH":19078,"BSTAR":-8.1988906e-5,"MEAN_MOTION_DOT":-1.8e-7,"MEAN_MOTION_DDOT":0},{"OBJECT_NAME":"ONEWEB-0384","OBJECT_ID":"2021-090AH","EPOCH":"2025-09-09T18:21:28.182528","MEAN_MOTION":13.20789057,"ECCENTRICITY":0.00022511,"INCLINATION":87.9299,"RA_OF_ASC_NODE":330.3599,"ARG_OF_PERICENTER":87.7977,"MEAN_ANOMALY":272.3414,"EPHEMERIS_TYPE":0,"CLASSIFICATION_TYPE":"U","NORAD_CAT_ID":49310,"ELEMENT_SET_NO":999,"REV_AT_EPOCH":19281,"BSTAR":-0.00015150225,"MEAN_MOTION_DOT":-4.9e-7,"MEAN_MOTION_DDOT":0},{"OBJECT_NAME":"ONEWEB-0385","OBJECT_ID":"2021-090AJ","EPOCH":"2025-09-10T05:11:42.316800","MEAN_MOTION":13.20773566,"ECCENTRICITY":0.00020187,"INCLINATION":87.9275,"RA_OF_ASC_NODE":330.2579,"ARG_OF_PERICENTER":95.8946,"MEAN_ANOMALY":264.2418,"EPHEMERIS_TYPE":0,"CLASSIFICATION_TYPE":"U","NORAD_CAT_ID":49311,"ELEMENT_SET_NO":999,"REV_AT_EPOCH":19284,"BSTAR":0.00018103724,"MEAN_MOTION_DOT":8.7e-7,"MEAN_MOTION_DDOT":0},{"OBJECT_NAME":"ONEWEB-0386","OBJECT_ID":"2021-090AK","EPOCH":"2025-09-10T11:03:58.744512","MEAN_MOTION":13.20771727,"ECCENTRICITY":0.00020436,"INCLINATION":87.9281,"RA_OF_ASC_NODE":330.1846,"ARG_OF_PERICENTER":91.507,"MEAN_ANOMALY":268.6298,"EPHEMERIS_TYPE":0,"CLASSIFICATION_TYPE":"U","NORAD_CAT_ID":49312,"ELEMENT_SET_NO":999,"REV_AT_EPOCH":19289,"BSTAR":0.00029796352,"MEAN_MOTION_DOT":1.34e-6,"MEAN_MOTION_DDOT":0},{"OBJECT_NAME":"ONEWEB-0387","OBJECT_ID":"2021-090AL","EPOCH":"2025-09-10T10:41:14.095392","MEAN_MOTION":13.20770881,"ECCENTRICITY":0.00022243,"INCLINATION":87.9275,"RA_OF_ASC_NODE":330.2417,"ARG_OF_PERICENTER":100.2436,"MEAN_ANOMALY":259.8949,"EPHEMERIS_TYPE":0,"CLASSIFICATION_TYPE":"U","NORAD_CAT_ID":49313,"ELEMENT_SET_NO":999,"REV_AT_EPOCH":19289,"BSTAR":0.00019367427,"MEAN_MOTION_DOT":9.2e-7,"MEAN_MOTION_DDOT":0},{"OBJECT_NAME":"ONEWEB-0388","OBJECT_ID":"2021-090AM","EPOCH":"2025-09-10T06:21:18.268128","MEAN_MOTION":13.19726254,"ECCENTRICITY":0.0001892,"INCLINATION":87.9282,"RA_OF_ASC_NODE":0.6413,"ARG_OF_PERICENTER":95.8734,"MEAN_ANOMALY":264.2614,"EPHEMERIS_TYPE":0,"CLASSIFICATION_TYPE":"U","NORAD_CAT_ID":49314,"ELEMENT_SET_NO":999,"REV_AT_EPOCH":18949,"BSTAR":0.00010422565,"MEAN_MOTION_DOT":5.5e-7,"MEAN_MOTION_DDOT":0},{"OBJECT_NAME":"ONEWEB-0389","OBJECT_ID":"2021-132A","EPOCH":"2025-09-10T10:47:49.262208","MEAN_MOTION":13.17649499,"ECCENTRICITY":0.00020953,"INCLINATION":87.9044,"RA_OF_ASC_NODE":61.5157,"ARG_OF_PERICENTER":91.0538,"MEAN_ANOMALY":269.0834,"EPHEMERIS_TYPE":0,"CLASSIFICATION_TYPE":"U","NORAD_CAT_ID":50469,"ELEMENT_SET_NO":999,"REV_AT_EPOCH":18124,"BSTAR":-0.00014431035,"MEAN_MOTION_DOT":-4.3e-7,"MEAN_MOTION_DDOT":0},{"OBJECT_NAME":"ONEWEB-0390","OBJECT_ID":"2021-132B","EPOCH":"2025-09-10T10:50:14.610336","MEAN_MOTION":13.17648504,"ECCENTRICITY":0.00017109,"INCLINATION":87.9045,"RA_OF_ASC_NODE":61.5215,"ARG_OF_PERICENTER":100.9429,"MEAN_ANOMALY":259.1895,"EPHEMERIS_TYPE":0,"CLASSIFICATION_TYPE":"U","NORAD_CAT_ID":50470,"ELEMENT_SET_NO":999,"REV_AT_EPOCH":18124,"BSTAR":-6.209168e-6,"MEAN_MOTION_DOT":1.0e-7,"MEAN_MOTION_DDOT":0},{"OBJECT_NAME":"ONEWEB-0391","OBJECT_ID":"2021-132C","EPOCH":"2025-09-10T10:52:39.531648","MEAN_MOTION":13.17650344,"ECCENTRICITY":0.00025347,"INCLINATION":87.9038,"RA_OF_ASC_NODE":61.5341,"ARG_OF_PERICENTER":99.6303,"MEAN_ANOMALY":260.5115,"EPHEMERIS_TYPE":0,"CLASSIFICATION_TYPE":"U","NORAD_CAT_ID":50471,"ELEMENT_SET_NO":999,"REV_AT_EPOCH":18124,"BSTAR":7.555451e-6,"MEAN_MOTION_DOT":1.6e-7,"MEAN_MOTION_DDOT":0},{"OBJECT_NAME":"ONEWEB-0392","OBJECT_ID":"2021-132D","EPOCH":"2025-09-09T21:01:36.963264","MEAN_MOTION":13.17650608,"ECCENTRICITY":0.00021363,"INCLINATION":87.9043,"RA_OF_ASC_NODE":61.5943,"ARG_OF_PERICENTER":93.5537,"MEAN_ANOMALY":266.5839,"EPHEMERIS_TYPE":0,"CLASSIFICATION_TYPE":"U","NORAD_CAT_ID":50472,"ELEMENT_SET_NO":999,"REV_AT_EPOCH":18120,"BSTAR":-3.8937657e-5,"MEAN_MOTION_DOT":-2.0e-8,"MEAN_MOTION_DDOT":0},{"OBJECT_NAME":"ONEWEB-0393","OBJECT_ID":"2021-132E","EPOCH":"2025-09-10T10:57:41.327712","MEAN_MOTION":13.17646815,"ECCENTRICITY":0.00018796,"INCLINATION":87.9047,"RA_OF_ASC_NODE":61.4983,"ARG_OF_PERICENTER":91.6767,"MEAN_ANOMALY":268.458,"EPHEMERIS_TYPE":0,"CLASSIFICATION_TYPE":"U","NORAD_CAT_ID":50473,"ELEMENT_SET_NO":999,"REV_AT_EPOCH":18127,"BSTAR":-3.721598e-6,"MEAN_MOTION_DOT":1.1e-7,"MEAN_MOTION_DDOT":0},{"OBJECT_NAME":"ONEWEB-0394","OBJECT_ID":"2021-132F","EPOCH":"2025-09-10T08:11:17.323008","MEAN_MOTION":13.18687716,"ECCENTRICITY":0.00019004,"INCLINATION":87.9187,"RA_OF_ASC_NODE":31.0077,"ARG_OF_PERICENTER":94.4857,"MEAN_ANOMALY":265.6493,"EPHEMERIS_TYPE":0,"CLASSIFICATION_TYPE":"U","NORAD_CAT_ID":50474,"ELEMENT_SET_NO":999,"REV_AT_EPOCH":18471,"BSTAR":0.0002744323,"MEAN_MOTION_DOT":1.21e-6,"MEAN_MOTION_DDOT":0},{"OBJECT_NAME":"ONEWEB-0395","OBJECT_ID":"2021-132G","EPOCH":"2025-09-10T05:37:12.897120","MEAN_MOTION":13.11417953,"ECCENTRICITY":0.00018951,"INCLINATION":87.8774,"RA_OF_ASC_NODE":76.8571,"ARG_OF_PERICENTER":96.8897,"MEAN_ANOMALY":263.2447,"EPHEMERIS_TYPE":0,"CLASSIFICATION_TYPE":"U","NORAD_CAT_ID":50475,"ELEMENT_SET_NO":999,"REV_AT_EPOCH":17902,"BSTAR":-0.0016277067,"MEAN_MOTION_DOT":-5.64e-6,"MEAN_MOTION_DDOT":0},{"OBJECT_NAME":"ONEWEB-0396","OBJECT_ID":"2021-132H","EPOCH":"2025-09-10T08:01:47.089056","MEAN_MOTION":13.18687864,"ECCENTRICITY":0.0001841,"INCLINATION":87.9184,"RA_OF_ASC_NODE":31.0209,"ARG_OF_PERICENTER":95.5128,"MEAN_ANOMALY":264.6214,"EPHEMERIS_TYPE":0,"CLASSIFICATION_TYPE":"U","NORAD_CAT_ID":50476,"ELEMENT_SET_NO":999,"REV_AT_EPOCH":18475,"BSTAR":0.00031623171,"MEAN_MOTION_DOT":1.38e-6,"MEAN_MOTION_DDOT":0},{"OBJECT_NAME":"ONEWEB-0397","OBJECT_ID":"2021-132J","EPOCH":"2025-09-10T08:23:10.261248","MEAN_MOTION":13.18685592,"ECCENTRICITY":0.00017876,"INCLINATION":87.9183,"RA_OF_ASC_NODE":31.019,"ARG_OF_PERICENTER":90.2431,"MEAN_ANOMALY":269.8906,"EPHEMERIS_TYPE":0,"CLASSIFICATION_TYPE":"U","NORAD_CAT_ID":50477,"ELEMENT_SET_NO":999,"REV_AT_EPOCH":18473,"BSTAR":0.00026422045,"MEAN_MOTION_DOT":1.17e-6,"MEAN_MOTION_DDOT":0},{"OBJECT_NAME":"ONEWEB-0398","OBJECT_ID":"2021-132K","EPOCH":"2025-09-10T04:50:51.386496","MEAN_MOTION":13.11415984,"ECCENTRICITY":0.00015802,"INCLINATION":87.8781,"RA_OF_ASC_NODE":76.8286,"ARG_OF_PERICENTER":103.204,"MEAN_ANOMALY":256.9264,"EPHEMERIS_TYPE":0,"CLASSIFICATION_TYPE":"U","NORAD_CAT_ID":50478,"ELEMENT_SET_NO":999,"REV_AT_EPOCH":17891,"BSTAR":0.0012677249,"MEAN_MOTION_DOT":4.62e-6,"MEAN_MOTION_DDOT":0},{"OBJECT_NAME":"ONEWEB-0399","OBJECT_ID":"2021-132L","EPOCH":"2025-09-10T06:21:11.168640","MEAN_MOTION":13.11419308,"ECCENTRICITY":0.00022156,"INCLINATION":87.8773,"RA_OF_ASC_NODE":76.8377,"ARG_OF_PERICENTER":83.6128,"MEAN_ANOMALY":276.5252,"EPHEMERIS_TYPE":0,"CLASSIFICATION_TYPE":"U","NORAD_CAT_ID":50479,"ELEMENT_SET_NO":999,"REV_AT_EPOCH":17891,"BSTAR":-0.00062874472,"MEAN_MOTION_DOT":-2.1e-6,"MEAN_MOTION_DDOT":0}]
